{"type": "FeatureCollection", "features": [ {"type": "Feature", "properties": {"norad_id": 30771, "name": "FENGYUN 1C DEB", "group": "fengyun-1c-debris", "lat": -69.14000015054044, "lon": 129.76531358553305, "alt_km": 739.2882107778078, "timestamp": "2025-12-24T07:45:06.478393+00:00", "meta": {"OBJECT_NAME": "FENGYUN 1C DEB", "OBJECT_ID": "1999-025AUH", "EPOCH": "2025-12-22T11:19:57.659232", "MEAN_MOTION": 14.43315606, "ECCENTRICITY": 0.0022325, "INCLINATION": 98.9061, "RA_OF_ASC_NODE": 332.1302, "ARG_OF_PERICENTER": 270.9076, "MEAN_ANOMALY": 88.9555, "EPHEMERIS_TYPE": 0, "CLASSIFICATION_TYPE": "U", "NORAD_CAT_ID": 30771, "ELEMENT_SET_NO": 999, "REV_AT_EPOCH": 97204, "BSTAR": 0.0025187478, "MEAN_MOTION_DOT": 8.476e-05, "MEAN_MOTION_DDOT": 0}, "tle": {"line1": "1 30771U 99025AUH 25356.47219513  .00008476  00000+0  25187-2 0  9995", "line2": "2 30771  98.9061 332.1302 0022325 270.9076  88.9555 14.43315606972047"}}, "geometry": {"type": "Point", "coordinates": [129.76531358553305, -69.14000015054044]}}, {"type": "Feature", "properties": {"norad_id": 30802, "name": "FENGYUN 1C DEB", "group": "fengyun-1c-debris", "lat": -67.51206054651766, "lon": 107.40771425715586, "alt_km": 787.2073554989283, "timestamp": "2025-12-24T07:45:06.478406+00:00", "meta": {"OBJECT_NAME": "FENGYUN 1C DEB", "OBJECT_ID": "1999-025AUL", "EPOCH": "2025-12-23T12:01:52.605120", "MEAN_MOTION": 14.32540396, "ECCENTRICITY": 0.00175462, "INCLINATION": 98.8365, "RA_OF_ASC_NODE": 84.4979, "ARG_OF_PERICENTER": 8.3634, "MEAN_ANOMALY": 7.4665, "EPHEMERIS_TYPE": 0, "CLASSIFICATION_TYPE": "U", "NORAD_CAT_ID": 30802, "ELEMENT_SET_NO": 999, "REV_AT_EPOCH": 97357, "BSTAR": 0.0016628416, "MEAN_MOTION_DOT": 4.474e-05, "MEAN_MOTION_DDOT": 0}, "tle": {"line1": "1 30802U 99025AUL 25357.50130330  .00004474  00000+0  16628-2 0  9998", "line2": "2 30802  98.8365  84.4979 0017546   8.3634   7.4665 14.32540396973578"}}, "geometry": {"type": "Point", "coordinates": [107.40771425715586, -67.51206054651766]}}, {"type": "Feature", "properties": {"norad_id": 30803, "name": "FENGYUN 1C DEB", "group": "fengyun-1c-debris", "lat": 80.74712652846443, "lon": -59.45202911855976, "alt_km": 832.0497264505293, "timestamp": "2025-12-24T07:45:06.478418+00:00", "meta": {"OBJECT_NAME": "FENGYUN 1C DEB", "OBJECT_ID": "1999-025AUM", "EPOCH": "2025-12-23T00:47:11.482656", "MEAN_MOTION": 14.11292129, "ECCENTRICITY": 0.01076426, "INCLINATION": 99.2448, "RA_OF_ASC_NODE": 30.5174, "ARG_OF_PERICENTER": 172.9934, "MEAN_ANOMALY": 206.8565, "EPHEMERIS_TYPE": 0, "CLASSIFICATION_TYPE": "U", "NORAD_CAT_ID": 30803, "ELEMENT_SET_NO": 999, "REV_AT_EPOCH": 96144, "BSTAR": 0.0013219036, "MEAN_MOTION_DOT": 2.475e-05, "MEAN_MOTION_DDOT": 0}, "tle": {"line1": "1 30803U 99025AUM 25357.03277179  .00002475  00000+0  13219-2 0  9992", "line2": "2 30803  99.2448  30.5174 0107642 172.9934 206.8565 14.11292129961445"}}, "geometry": {"type": "Point", "coordinates": [-59.45202911855976, 80.74712652846443]}}, {"type": "Feature", "properties": {"norad_id": 30804, "name": "FENGYUN 1C DEB", "group": "fengyun-1c-debris", "lat": 54.657220596087065, "lon": -102.74965854692692, "alt_km": 591.8402714360436, "timestamp": "2025-12-24T07:45:06.478429+00:00", "meta": {"OBJECT_NAME": "FENGYUN 1C DEB", "OBJECT_ID": "1999-025AUN", "EPOCH": "2025-12-23T11:26:48.201792", "MEAN_MOTION": 14.54658789, "ECCENTRICITY": 0.01859375, "INCLINATION": 98.8933, "RA_OF_ASC_NODE": 63.5949, "ARG_OF_PERICENTER": 158.0454, "MEAN_ANOMALY": 219.3446, "EPHEMERIS_TYPE": 0, "CLASSIFICATION_TYPE": "U", "NORAD_CAT_ID": 30804, "ELEMENT_SET_NO": 999, "REV_AT_EPOCH": 99633, "BSTAR": 0.00044885961, "MEAN_MOTION_DOT": 2.358e-05, "MEAN_MOTION_DDOT": 0}, "tle": {"line1": "1 30804U 99025AUN 25357.47694678  .00002358  00000+0  44886-3 0  9993", "line2": "2 30804  98.8933  63.5949 0185937 158.0454 219.3446 14.54658789996339"}}, "geometry": {"type": "Point", "coordinates": [-102.74965854692692, 54.657220596087065]}}, {"type": "Feature", "properties": {"norad_id": 30805, "name": "FENGYUN 1C DEB", "group": "fengyun-1c-debris", "lat": -76.20649306726146, "lon": 79.84858075700953, "alt_km": 846.1538765277019, "timestamp": "2025-12-24T07:45:06.478442+00:00", "meta": {"OBJECT_NAME": "FENGYUN 1C DEB", "OBJECT_ID": "1999-025AUP", "EPOCH": "2025-12-23T21:00:03.708288", "MEAN_MOTION": 14.02925929, "ECCENTRICITY": 0.00705811, "INCLINATION": 98.8196, "RA_OF_ASC_NODE": 40.1874, "ARG_OF_PERICENTER": 252.6893, "MEAN_ANOMALY": 286.4539, "EPHEMERIS_TYPE": 0, "CLASSIFICATION_TYPE": "U", "NORAD_CAT_ID": 30805, "ELEMENT_SET_NO": 999, "REV_AT_EPOCH": 96116, "BSTAR": 0.00098747693, "MEAN_MOTION_DOT": 1.522e-05, "MEAN_MOTION_DDOT": 0}, "tle": {"line1": "1 30805U 99025AUP 25357.87504292  .00001522  00000+0  98748-3 0  9998", "line2": "2 30805  98.8196  40.1874 0070581 252.6893 286.4539 14.02925929961162"}}, "geometry": {"type": "Point", "coordinates": [79.84858075700953, -76.20649306726146]}}, {"type": "Feature", "properties": {"norad_id": 30806, "name": "FENGYUN 1C DEB", "group": "fengyun-1c-debris", "lat": 18.789469978364757, "lon": 21.068867466211834, "alt_km": 961.4626768125981, "timestamp": "2025-12-24T07:45:06.478452+00:00", "meta": {"OBJECT_NAME": "FENGYUN 1C DEB", "OBJECT_ID": "1999-025AUQ", "EPOCH": "2025-12-22T21:12:00.277920", "MEAN_MOTION": 13.70435265, "ECCENTRICITY": 0.02679693, "INCLINATION": 99.035, "RA_OF_ASC_NODE": 22.8176, "ARG_OF_PERICENTER": 103.7502, "MEAN_ANOMALY": 19.5556, "EPHEMERIS_TYPE": 0, "CLASSIFICATION_TYPE": "U", "NORAD_CAT_ID": 30806, "ELEMENT_SET_NO": 999, "REV_AT_EPOCH": 93834, "BSTAR": 0.00071835123, "MEAN_MOTION_DOT": 7.8e-06, "MEAN_MOTION_DDOT": 0}, "tle": {"line1": "1 30806U 99025AUQ 25356.88333655  .00000780  00000+0  71835-3 0  9995", "line2": "2 30806  99.0350  22.8176 0267969 103.7502  19.5556 13.70435265938342"}}, "geometry": {"type": "Point", "coordinates": [21.068867466211834, 18.789469978364757]}}, {"type": "Feature", "properties": {"norad_id": 30809, "name": "FENGYUN 1C DEB", "group": "fengyun-1c-debris", "lat": 55.72007370152509, "lon": -79.41980375814069, "alt_km": 752.5937676066433, "timestamp": "2025-12-24T07:45:06.478463+00:00", "meta": {"OBJECT_NAME": "FENGYUN 1C DEB", "OBJECT_ID": "1999-025AUT", "EPOCH": "2025-12-23T04:17:49.751520", "MEAN_MOTION": 14.29314737, "ECCENTRICITY": 0.00521844, "INCLINATION": 98.7888, "RA_OF_ASC_NODE": 86.3085, "ARG_OF_PERICENTER": 142.2717, "MEAN_ANOMALY": 218.2142, "EPHEMERIS_TYPE": 0, "CLASSIFICATION_TYPE": "U", "NORAD_CAT_ID": 30809, "ELEMENT_SET_NO": 999, "REV_AT_EPOCH": 97236, "BSTAR": 0.0017567777, "MEAN_MOTION_DOT": 4.495e-05, "MEAN_MOTION_DDOT": 0}, "tle": {"line1": "1 30809U 99025AUT 25357.17904805  .00004495  00000+0  17568-2 0  9991", "line2": "2 30809  98.7888  86.3085 0052184 142.2717 218.2142 14.29314737972362"}}, "geometry": {"type": "Point", "coordinates": [-79.41980375814069, 55.72007370152509]}}, {"type": "Feature", "properties": {"norad_id": 30810, "name": "FENGYUN 1C DEB", "group": "fengyun-1c-debris", "lat": -7.0835220097308165, "lon": -11.348473503973253, "alt_km": 1008.7427294897907, "timestamp": "2025-12-24T07:45:06.478473+00:00", "meta": {"OBJECT_NAME": "FENGYUN 1C DEB", "OBJECT_ID": "1999-025AUU", "EPOCH": "2025-12-23T03:30:35.133408", "MEAN_MOTION": 14.04241497, "ECCENTRICITY": 0.01798853, "INCLINATION": 98.6617, "RA_OF_ASC_NODE": 168.6141, "ARG_OF_PERICENTER": 25.4923, "MEAN_ANOMALY": 335.4984, "EPHEMERIS_TYPE": 0, "CLASSIFICATION_TYPE": "U", "NORAD_CAT_ID": 30810, "ELEMENT_SET_NO": 999, "REV_AT_EPOCH": 94529, "BSTAR": 0.0028608678, "MEAN_MOTION_DOT": 5.209e-05, "MEAN_MOTION_DDOT": 0}, "tle": {"line1": "1 30810U 99025AUU 25357.14623997  .00005209  00000+0  28609-2 0  9992", "line2": "2 30810  98.6617 168.6141 0179885  25.4923 335.4984 14.04241497945292"}}, "geometry": {"type": "Point", "coordinates": [-11.348473503973253, -7.0835220097308165]}}, {"type": "Feature", "properties": {"norad_id": 30811, "name": "FENGYUN 1C DEB", "group": "fengyun-1c-debris", "lat": 28.546308428455838, "lon": -138.6351087601238, "alt_km": 1170.4104199941785, "timestamp": "2025-12-24T07:45:06.478485+00:00", "meta": {"OBJECT_NAME": "FENGYUN 1C DEB", "OBJECT_ID": "1999-025AUV", "EPOCH": "2025-12-22T02:07:59.436768", "MEAN_MOTION": 13.61870689, "ECCENTRICITY": 0.02779782, "INCLINATION": 98.7814, "RA_OF_ASC_NODE": 34.5277, "ARG_OF_PERICENTER": 21.7209, "MEAN_ANOMALY": 339.5458, "EPHEMERIS_TYPE": 0, "CLASSIFICATION_TYPE": "U", "NORAD_CAT_ID": 30811, "ELEMENT_SET_NO": 999, "REV_AT_EPOCH": 92994, "BSTAR": 0.0016486315, "MEAN_MOTION_DOT": 1.603e-05, "MEAN_MOTION_DDOT": 0}, "tle": {"line1": "1 30811U 99025AUV 25356.08888237  .00001603  00000+0  16486-2 0  9999", "line2": "2 30811  98.7814  34.5277 0277978  21.7209 339.5458 13.61870689929940"}}, "geometry": {"type": "Point", "coordinates": [-138.6351087601238, 28.546308428455838]}}, {"type": "Feature", "properties": {"norad_id": 30814, "name": "FENGYUN 1C DEB", "group": "fengyun-1c-debris", "lat": -7.460450475148971, "lon": -22.97181273999908, "alt_km": 714.5995100526407, "timestamp": "2025-12-24T07:45:06.478496+00:00", "meta": {"OBJECT_NAME": "FENGYUN 1C DEB", "OBJECT_ID": "1999-025AUY", "EPOCH": "2025-12-23T22:10:12.895968", "MEAN_MOTION": 14.60690949, "ECCENTRICITY": 0.00304895, "INCLINATION": 99.0828, "RA_OF_ASC_NODE": 335.3904, "ARG_OF_PERICENTER": 196.9166, "MEAN_ANOMALY": 217.365, "EPHEMERIS_TYPE": 0, "CLASSIFICATION_TYPE": "U", "NORAD_CAT_ID": 30814, "ELEMENT_SET_NO": 999, "REV_AT_EPOCH": 97905, "BSTAR": 0.0025003917, "MEAN_MOTION_DOT": 0.00012225, "MEAN_MOTION_DDOT": 0}, "tle": {"line1": "1 30814U 99025AUY 25357.92376037  .00012225  00000+0  25004-2 0  9994", "line2": "2 30814  99.0828 335.3904 0030489 196.9166 217.3650 14.60690949979055"}}, "geometry": {"type": "Point", "coordinates": [-22.97181273999908, -7.460450475148971]}}]}